{
    "links": {
        "self": "http://www.neowsapp.com/rest/v1/neo/3803887?api_key=iIulBulltgU6a56xZRHN4H3l9WmuAYTsLGpBGhQ2"
    },
    "id": "3803887",
    "neo_reference_id": "3803887",
    "name": "(2018 GO5)",
    "designation": "2018 GO5",
    "nasa_jpl_url": "http://ssd.jpl.nasa.gov/sbdb.cgi?sstr=3803887",
    "absolute_magnitude_h": 21.4,
    "estimated_diameter": {
        "kilometers": {
            "estimated_diameter_min": 0.1394938229,
            "estimated_diameter_max": 0.3119176705
        },
        "meters": {
            "estimated_diameter_min": 139.4938229344,
            "estimated_diameter_max": 311.9176705226
        },
        "miles": {
            "estimated_diameter_min": 0.0866774163,
            "estimated_diameter_max": 0.1938165949
        },
        "feet": {
            "estimated_diameter_min": 457.6569140361,
            "estimated_diameter_max": 1023.3519701574
        }
    },
    "is_potentially_hazardous_asteroid": false,
    "close_approach_data": [
        {
            "close_approach_date": "2018-04-20",
            "close_approach_date_full": "2018-Apr-20 07:38",
            "epoch_date_close_approach": 1524209880000,
            "relative_velocity": {
                "kilometers_per_second": "24.6018524081",
                "kilometers_per_hour": "88566.6686692666",
                "miles_per_hour": "55031.8836517451"
            },
            "miss_distance": {
                "astronomical": "0.4845989497",
                "lunar": "188.5089914333",
                "kilometers": "72494970.679357139",
                "miles": "45046285.9561169582"
            },
            "orbiting_body": "Earth"
        }
    ],
    "orbital_data": {
        "orbit_id": "1",
        "orbit_determination_date": "2018-04-18 10:42:02",
        "first_observation_date": "2018-04-12",
        "last_observation_date": "2018-04-18",
        "data_arc_in_days": 6,
        "observations_used": 19,
        "orbit_uncertainty": "9",
        "minimum_orbit_intersection": ".233398",
        "jupiter_tisserand_invariant": "2.547",
        "epoch_osculation": "2458222.5",
        "eccentricity": ".6993756200872565",
        "semi_major_axis": "2.825033381544316",
        "inclination": "47.94583301435377",
        "ascending_node_longitude": "190.8281010625037",
        "orbital_period": "1734.338251779765",
        "perihelion_distance": ".8492739085595609",
        "perihelion_argument": "97.68255586712502",
        "aphelion_distance": "4.800792854529071",
        "perihelion_time": "2458305.368334061125",
        "mean_anomaly": "342.7988570099339",
        "mean_motion": ".2075719656362136",
        "equinox": "J2000",
        "orbit_class": {
            "orbit_class_type": "APO",
            "orbit_class_description": "Near-Earth asteroid orbits which cross the Earth’s orbit similar to that of 1862 Apollo",
            "orbit_class_range": "a (semi-major axis) > 1.0 AU; q (perihelion) < 1.017 AU"
        }
    },
    "is_sentry_object": false
}